{"type": "FeatureCollection", "features": [ {"type": "Feature", "properties": {"norad_id": 30914, "name": "FENGYUN 1C DEB", "group": "fengyun-1c-debris", "lat": -71.45320864290686, "lon": -99.52217418830217, "alt_km": 1101.3176281161277, "timestamp": "2025-12-10T18:57:00.344899+00:00", "meta": {"OBJECT_NAME": "FENGYUN 1C DEB", "OBJECT_ID": "1999-025AZC", "EPOCH": "2025-12-05T09:02:51.683712", "MEAN_MOTION": 13.08779712, "ECCENTRICITY": 0.05156065, "INCLINATION": 99.9823, "RA_OF_ASC_NODE": 223.7471, "ARG_OF_PERICENTER": 11.0586, "MEAN_ANOMALY": 350.1366, "EPHEMERIS_TYPE": 0, "CLASSIFICATION_TYPE": "U", "NORAD_CAT_ID": 30914, "ELEMENT_SET_NO": 999, "REV_AT_EPOCH": 58979, "BSTAR": 0.0075081183, "MEAN_MOTION_DOT": 4.885e-05, "MEAN_MOTION_DDOT": 0}, "tle": {"line1": "1 30914U 99025AZC 25339.37698708  .00004885  00000+0  75081-2 0  9999", "line2": "2 30914  99.9823 223.7471 0515606  11.0586 350.1366 13.08779712589796"}}, "geometry": {"type": "Point", "coordinates": [-99.52217418830217, -71.45320864290686]}}, {"type": "Feature", "properties": {"norad_id": 30915, "name": "FENGYUN 1C DEB", "group": "fengyun-1c-debris", "lat": -80.20929500587074, "lon": 126.75855142119671, "alt_km": 822.596540061063, "timestamp": "2025-12-10T18:57:00.344910+00:00", "meta": {"OBJECT_NAME": "FENGYUN 1C DEB", "OBJECT_ID": "1999-025AZD", "EPOCH": "2025-12-10T04:11:23.980704", "MEAN_MOTION": 14.25008915, "ECCENTRICITY": 0.00538255, "INCLINATION": 98.9414, "RA_OF_ASC_NODE": 60.3008, "ARG_OF_PERICENTER": 175.2904, "MEAN_ANOMALY": 184.8792, "EPHEMERIS_TYPE": 0, "CLASSIFICATION_TYPE": "U", "NORAD_CAT_ID": 30915, "ELEMENT_SET_NO": 999, "REV_AT_EPOCH": 96476, "BSTAR": 0.0022483517, "MEAN_MOTION_DOT": 5.301e-05, "MEAN_MOTION_DDOT": 0}, "tle": {"line1": "1 30915U 99025AZD 25344.17458311  .00005301  00000+0  22484-2 0  9991", "line2": "2 30915  98.9414  60.3008 0053825 175.2904 184.8792 14.25008915964769"}}, "geometry": {"type": "Point", "coordinates": [126.75855142119671, -80.20929500587074]}}, {"type": "Feature", "properties": {"norad_id": 30916, "name": "FENGYUN 1C DEB", "group": "fengyun-1c-debris", "lat": 70.65266039029441, "lon": 18.2981574219249, "alt_km": 901.1366990018569, "timestamp": "2025-12-10T18:57:00.344920+00:00", "meta": {"OBJECT_NAME": "FENGYUN 1C DEB", "OBJECT_ID": "1999-025AZE", "EPOCH": "2025-12-09T03:31:45.007680", "MEAN_MOTION": 14.0877406, "ECCENTRICITY": 0.00625639, "INCLINATION": 99.002, "RA_OF_ASC_NODE": 43.4963, "ARG_OF_PERICENTER": 268.4567, "MEAN_ANOMALY": 118.5461, "EPHEMERIS_TYPE": 0, "CLASSIFICATION_TYPE": "U", "NORAD_CAT_ID": 30916, "ELEMENT_SET_NO": 999, "REV_AT_EPOCH": 95793, "BSTAR": 0.0014002638, "MEAN_MOTION_DOT": 2.414e-05, "MEAN_MOTION_DDOT": 0}, "tle": {"line1": "1 30916U 99025AZE 25343.14704870  .00002414  00000+0  14003-2 0  9992", "line2": "2 30916  99.0020  43.4963 0062563 268.4567 118.5461 14.08774060957936"}}, "geometry": {"type": "Point", "coordinates": [18.2981574219249, 70.65266039029441]}}, {"type": "Feature", "properties": {"norad_id": 30918, "name": "FENGYUN 1C DEB", "group": "fengyun-1c-debris", "lat": -61.26992059119389, "lon": -98.50576253262136, "alt_km": 952.8888023913123, "timestamp": "2025-12-10T18:57:00.344930+00:00", "meta": {"OBJECT_NAME": "FENGYUN 1C DEB", "OBJECT_ID": "1999-025AZG", "EPOCH": "2025-12-09T07:44:10.539744", "MEAN_MOTION": 13.96798125, "ECCENTRICITY": 0.0158393, "INCLINATION": 98.4162, "RA_OF_ASC_NODE": 95.8196, "ARG_OF_PERICENTER": 134.8714, "MEAN_ANOMALY": 291.8901, "EPHEMERIS_TYPE": 0, "CLASSIFICATION_TYPE": "U", "NORAD_CAT_ID": 30918, "ELEMENT_SET_NO": 999, "REV_AT_EPOCH": 95005, "BSTAR": 0.002218, "MEAN_MOTION_DOT": 3.39e-05, "MEAN_MOTION_DDOT": 0}, "tle": {"line1": "1 30918U 99025AZG 25343.32234421  .00003390  00000+0  22180-2 0  9993", "line2": "2 30918  98.4162  95.8196 0158393 134.8714 291.8901 13.96798125950058"}}, "geometry": {"type": "Point", "coordinates": [-98.50576253262136, -61.26992059119389]}}, {"type": "Feature", "properties": {"norad_id": 30920, "name": "FENGYUN 1C DEB", "group": "fengyun-1c-debris", "lat": 4.887729619192019, "lon": 125.3090904647279, "alt_km": 850.6774922176055, "timestamp": "2025-12-10T18:57:00.344940+00:00", "meta": {"OBJECT_NAME": "FENGYUN 1C DEB", "OBJECT_ID": "1999-025AZJ", "EPOCH": "2025-12-10T08:45:20.346048", "MEAN_MOTION": 14.16572052, "ECCENTRICITY": 0.0110162, "INCLINATION": 98.9197, "RA_OF_ASC_NODE": 125.6529, "ARG_OF_PERICENTER": 105.2144, "MEAN_ANOMALY": 256.1242, "EPHEMERIS_TYPE": 0, "CLASSIFICATION_TYPE": "U", "NORAD_CAT_ID": 30920, "ELEMENT_SET_NO": 999, "REV_AT_EPOCH": 95060, "BSTAR": 0.0059228, "MEAN_MOTION_DOT": 0.00012505, "MEAN_MOTION_DDOT": 0}, "tle": {"line1": "1 30920U 99025AZJ 25344.36481882  .00012505  00000+0  59228-2 0  9997", "line2": "2 30920  98.9197 125.6529 0110162 105.2144 256.1242 14.16572052950602"}}, "geometry": {"type": "Point", "coordinates": [125.3090904647279, 4.887729619192019]}}, {"type": "Feature", "properties": {"norad_id": 30921, "name": "FENGYUN 1C DEB", "group": "fengyun-1c-debris", "lat": 39.05627995560347, "lon": -100.51521354138934, "alt_km": 781.0056709669516, "timestamp": "2025-12-10T18:57:00.344950+00:00", "meta": {"OBJECT_NAME": "FENGYUN 1C DEB", "OBJECT_ID": "1999-025AZK", "EPOCH": "2025-12-10T05:01:33.685824", "MEAN_MOTION": 14.32695115, "ECCENTRICITY": 0.00169977, "INCLINATION": 98.8423, "RA_OF_ASC_NODE": 71.6368, "ARG_OF_PERICENTER": 45.7709, "MEAN_ANOMALY": 343.6808, "EPHEMERIS_TYPE": 0, "CLASSIFICATION_TYPE": "U", "NORAD_CAT_ID": 30921, "ELEMENT_SET_NO": 999, "REV_AT_EPOCH": 96788, "BSTAR": 0.0024581928, "MEAN_MOTION_DOT": 6.658e-05, "MEAN_MOTION_DDOT": 0}, "tle": {"line1": "1 30921U 99025AZK 25344.20941766  .00006658  00000+0  24582-2 0  9990", "line2": "2 30921  98.8423  71.6368 0016997  45.7709 343.6808 14.32695115967883"}}, "geometry": {"type": "Point", "coordinates": [-100.51521354138934, 39.05627995560347]}}, {"type": "Feature", "properties": {"norad_id": 30922, "name": "FENGYUN 1C DEB", "group": "fengyun-1c-debris", "lat": -12.801313126170855, "lon": 178.70905126236988, "alt_km": 845.7278404629615, "timestamp": "2025-12-10T18:57:00.344960+00:00", "meta": {"OBJECT_NAME": "FENGYUN 1C DEB", "OBJECT_ID": "1999-025AZL", "EPOCH": "2025-12-09T20:36:06.254208", "MEAN_MOTION": 14.17448931, "ECCENTRICITY": 0.00146808, "INCLINATION": 98.6404, "RA_OF_ASC_NODE": 359.7837, "ARG_OF_PERICENTER": 61.6746, "MEAN_ANOMALY": 62.0594, "EPHEMERIS_TYPE": 0, "CLASSIFICATION_TYPE": "U", "NORAD_CAT_ID": 30922, "ELEMENT_SET_NO": 999, "REV_AT_EPOCH": 96523, "BSTAR": 0.0010059343, "MEAN_MOTION_DOT": 1.998e-05, "MEAN_MOTION_DDOT": 0}, "tle": {"line1": "1 30922U 99025AZL 25343.85840572  .00001998  00000+0  10059-2 0  9990", "line2": "2 30922  98.6404 359.7837 0014680  61.6746  62.0594 14.17448931965233"}}, "geometry": {"type": "Point", "coordinates": [178.70905126236988, -12.801313126170855]}}, {"type": "Feature", "properties": {"norad_id": 30925, "name": "FENGYUN 1C DEB", "group": "fengyun-1c-debris", "lat": 40.665854611828884, "lon": -55.79024873986767, "alt_km": 750.8615073712263, "timestamp": "2025-12-10T18:57:00.344970+00:00", "meta": {"OBJECT_NAME": "FENGYUN 1C DEB", "OBJECT_ID": "1999-025AZP", "EPOCH": "2025-12-08T20:25:26.145120", "MEAN_MOTION": 14.43023313, "ECCENTRICITY": 0.00330437, "INCLINATION": 98.8832, "RA_OF_ASC_NODE": 114.4683, "ARG_OF_PERICENTER": 248.7234, "MEAN_ANOMALY": 265.1315, "EPHEMERIS_TYPE": 0, "CLASSIFICATION_TYPE": "U", "NORAD_CAT_ID": 30925, "ELEMENT_SET_NO": 999, "REV_AT_EPOCH": 97016, "BSTAR": 0.0039068019, "MEAN_MOTION_DOT": 0.00013151, "MEAN_MOTION_DDOT": 0}, "tle": {"line1": "1 30925U 99025AZP 25342.85099705  .00013151  00000+0  39068-2 0  9991", "line2": "2 30925  98.8832 114.4683 0033043 248.7234 265.1315 14.43023313970169"}}, "geometry": {"type": "Point", "coordinates": [-55.79024873986767, 40.665854611828884]}}, {"type": "Feature", "properties": {"norad_id": 30926, "name": "FENGYUN 1C DEB", "group": "fengyun-1c-debris", "lat": -38.47363538239106, "lon": -67.61696105130284, "alt_km": 559.5155821302087, "timestamp": "2025-12-10T18:57:00.344981+00:00", "meta": {"OBJECT_NAME": "FENGYUN 1C DEB", "OBJECT_ID": "1999-025AZQ", "EPOCH": "2025-12-09T18:56:04.409088", "MEAN_MOTION": 14.89287072, "ECCENTRICITY": 0.01661411, "INCLINATION": 98.8021, "RA_OF_ASC_NODE": 284.1973, "ARG_OF_PERICENTER": 31.2395, "MEAN_ANOMALY": 329.8565, "EPHEMERIS_TYPE": 0, "CLASSIFICATION_TYPE": "U", "NORAD_CAT_ID": 30926, "ELEMENT_SET_NO": 999, "REV_AT_EPOCH": 723, "BSTAR": 0.00086808449, "MEAN_MOTION_DOT": 0.00010599, "MEAN_MOTION_DDOT": 0}, "tle": {"line1": "1 30926U 99025AZQ 25343.78893992  .00010599  00000+0  86808-3 0  9993", "line2": "2 30926  98.8021 284.1973 0166141  31.2395 329.8565 14.89287072  7234"}}, "geometry": {"type": "Point", "coordinates": [-67.61696105130284, -38.47363538239106]}}, {"type": "Feature", "properties": {"norad_id": 30927, "name": "FENGYUN 1C DEB", "group": "fengyun-1c-debris", "lat": 3.150894970982287, "lon": 44.71347993434432, "alt_km": 794.8089030784931, "timestamp": "2025-12-10T18:57:00.344991+00:00", "meta": {"OBJECT_NAME": "FENGYUN 1C DEB", "OBJECT_ID": "1999-025AZR", "EPOCH": "2025-12-10T10:24:49.588128", "MEAN_MOTION": 14.08960297, "ECCENTRICITY": 0.009844, "INCLINATION": 99.1824, "RA_OF_ASC_NODE": 44.8614, "ARG_OF_PERICENTER": 12.5092, "MEAN_ANOMALY": 347.8487, "EPHEMERIS_TYPE": 0, "CLASSIFICATION_TYPE": "U", "NORAD_CAT_ID": 30927, "ELEMENT_SET_NO": 999, "REV_AT_EPOCH": 95651, "BSTAR": 0.0021868, "MEAN_MOTION_DOT": 3.913e-05, "MEAN_MOTION_DDOT": 0}, "tle": {"line1": "1 30927U 99025AZR 25344.43390727  .00003913  00000+0  21868-2 0  9991", "line2": "2 30927  99.1824  44.8614 0098440  12.5092 347.8487 14.08960297956510"}}, "geometry": {"type": "Point", "coordinates": [44.71347993434432, 3.150894970982287]}}]}